[{"OBJECT_NAME":"ONEWEB-0567","OBJECT_ID":"2023-004H","EPOCH":"2026-04-19T02:31:57.074016","MEAN_MOTION":13.18686312,"ECCENTRICITY":0.0001677,"INCLINATION":87.9208,"RA_OF_ASC_NODE":347.2249,"ARG_OF_PERICENTER":68.3003,"MEAN_ANOMALY":291.8307,"EPHEMERIS_TYPE":0,"CLASSIFICATION_TYPE":"U","NORAD_CAT_ID":55147,"ELEMENT_SET_NO":999,"REV_AT_EPOCH":16191,"BSTAR":0.00014155000000000003,"MEAN_MOTION_DOT":6.9e-07,"MEAN_MOTION_DDOT":0.0},{"OBJECT_NAME":"ONEWEB-0569","OBJECT_ID":"2023-004J","EPOCH":"2026-04-19T02:56:53.973888","MEAN_MOTION":13.13469862,"ECCENTRICITY":0.0002239,"INCLINATION":87.8983,"RA_OF_ASC_NODE":331.9802,"ARG_OF_PERICENTER":61.0763,"MEAN_ANOMALY":299.059,"EPHEMERIS_TYPE":0,"CLASSIFICATION_TYPE":"U","NORAD_CAT_ID":55148,"ELEMENT_SET_NO":999,"REV_AT_EPOCH":16242,"BSTAR":0.00015581000000000001,"MEAN_MOTION_DOT":7e-07,"MEAN_MOTION_DDOT":0.0},{"OBJECT_NAME":"ONEWEB-0570","OBJECT_ID":"2023-004K","EPOCH":"2026-04-19T02:17:41.198208","MEAN_MOTION":13.18684376,"ECCENTRICITY":0.0001282,"INCLINATION":87.9207,"RA_OF_ASC_NODE":347.2247,"ARG_OF_PERICENTER":81.8452,"MEAN_ANOMALY":278.2826,"EPHEMERIS_TYPE":0,"CLASSIFICATION_TYPE":"U","NORAD_CAT_ID":55149,"ELEMENT_SET_NO":999,"REV_AT_EPOCH":16190,"BSTAR":0.00016164,"MEAN_MOTION_DOT":7.7e-07,"MEAN_MOTION_DDOT":0.0},{"OBJECT_NAME":"ONEWEB-0571","OBJECT_ID":"2023-004L","EPOCH":"2026-04-19T02:08:11.276160","MEAN_MOTION":13.18684095,"ECCENTRICITY":0.0001849,"INCLINATION":87.9206,"RA_OF_ASC_NODE":347.225,"ARG_OF_PERICENTER":41.6932,"MEAN_ANOMALY":318.4341,"EPHEMERIS_TYPE":0,"CLASSIFICATION_TYPE":"U","NORAD_CAT_ID":55150,"ELEMENT_SET_NO":999,"REV_AT_EPOCH":16191,"BSTAR":0.00025064,"MEAN_MOTION_DOT":1.12e-06,"MEAN_MOTION_DDOT":0.0},{"OBJECT_NAME":"ONEWEB-0572","OBJECT_ID":"2023-004M","EPOCH":"2026-04-19T03:17:37.834080","MEAN_MOTION":13.1764744,"ECCENTRICITY":0.0001728,"INCLINATION":87.9186,"RA_OF_ASC_NODE":17.5972,"ARG_OF_PERICENTER":72.5923,"MEAN_ANOMALY":287.5398,"EPHEMERIS_TYPE":0,"CLASSIFICATION_TYPE":"U","NORAD_CAT_ID":55151,"ELEMENT_SET_NO":999,"REV_AT_EPOCH":15970,"BSTAR":0.00017658,"MEAN_MOTION_DOT":8.1e-07,"MEAN_MOTION_DDOT":0.0},{"OBJECT_NAME":"ONEWEB-0573","OBJECT_ID":"2023-004N","EPOCH":"2026-04-19T01:58:41.858688","MEAN_MOTION":13.18684637,"ECCENTRICITY":0.0001208,"INCLINATION":87.9207,"RA_OF_ASC_NODE":347.2279,"ARG_OF_PERICENTER":57.6934,"MEAN_ANOMALY":302.4315,"EPHEMERIS_TYPE":0,"CLASSIFICATION_TYPE":"U","NORAD_CAT_ID":55152,"ELEMENT_SET_NO":999,"REV_AT_EPOCH":16190,"BSTAR":0.0001766,"MEAN_MOTION_DOT":8.3e-07,"MEAN_MOTION_DDOT":0.0},{"OBJECT_NAME":"ONEWEB-0588","OBJECT_ID":"2023-004P","EPOCH":"2026-04-19T01:49:11.915040","MEAN_MOTION":13.18678392,"ECCENTRICITY":0.0001314,"INCLINATION":87.9202,"RA_OF_ASC_NODE":347.2301,"ARG_OF_PERICENTER":79.695,"MEAN_ANOMALY":280.433,"EPHEMERIS_TYPE":0,"CLASSIFICATION_TYPE":"U","NORAD_CAT_ID":55153,"ELEMENT_SET_NO":999,"REV_AT_EPOCH":16190,"BSTAR":-0.0019131999999999999,"MEAN_MOTION_DOT":-7.41e-06,"MEAN_MOTION_DDOT":0.0},{"OBJECT_NAME":"ONEWEB-0598","OBJECT_ID":"2023-004Q","EPOCH":"2026-04-19T04:23:18.269376","MEAN_MOTION":13.11418188,"ECCENTRICITY":0.0002087,"INCLINATION":87.8916,"RA_OF_ASC_NODE":32.7998,"ARG_OF_PERICENTER":57.6813,"MEAN_ANOMALY":302.4517,"EPHEMERIS_TYPE":0,"CLASSIFICATION_TYPE":"U","NORAD_CAT_ID":55154,"ELEMENT_SET_NO":999,"REV_AT_EPOCH":15816,"BSTAR":-0.00049364,"MEAN_MOTION_DOT":-1.62e-06,"MEAN_MOTION_DDOT":0.0},{"OBJECT_NAME":"ONEWEB-0599","OBJECT_ID":"2023-004R","EPOCH":"2026-04-19T04:11:05.857440","MEAN_MOTION":13.17647458,"ECCENTRICITY":0.000204,"INCLINATION":87.9185,"RA_OF_ASC_NODE":17.5884,"ARG_OF_PERICENTER":76.4206,"MEAN_ANOMALY":283.7152,"EPHEMERIS_TYPE":0,"CLASSIFICATION_TYPE":"U","NORAD_CAT_ID":55155,"ELEMENT_SET_NO":999,"REV_AT_EPOCH":15971,"BSTAR":0.00020491000000000002,"MEAN_MOTION_DOT":9.2e-07,"MEAN_MOTION_DDOT":0.0},{"OBJECT_NAME":"ONEWEB-0614","OBJECT_ID":"2023-004S","EPOCH":"2026-04-19T04:15:59.728032","MEAN_MOTION":13.11414459,"ECCENTRICITY":0.0001704,"INCLINATION":87.8918,"RA_OF_ASC_NODE":32.8091,"ARG_OF_PERICENTER":83.9656,"MEAN_ANOMALY":276.1666,"EPHEMERIS_TYPE":0,"CLASSIFICATION_TYPE":"U","NORAD_CAT_ID":55156,"ELEMENT_SET_NO":999,"REV_AT_EPOCH":15810,"BSTAR":0.00012989000000000002,"MEAN_MOTION_DOT":5.9e-07,"MEAN_MOTION_DDOT":0.0},{"OBJECT_NAME":"ONEWEB-0616","OBJECT_ID":"2023-004T","EPOCH":"2026-04-19T03:22:30.222912","MEAN_MOTION":13.17648043,"ECCENTRICITY":0.0002749,"INCLINATION":87.9187,"RA_OF_ASC_NODE":17.5972,"ARG_OF_PERICENTER":78.9781,"MEAN_ANOMALY":281.166,"EPHEMERIS_TYPE":0,"CLASSIFICATION_TYPE":"U","NORAD_CAT_ID":55157,"ELEMENT_SET_NO":999,"REV_AT_EPOCH":15992,"BSTAR":3.3237e-05,"MEAN_MOTION_DOT":2.6e-07,"MEAN_MOTION_DDOT":0.0},{"OBJECT_NAME":"ONEWEB-0617","OBJECT_ID":"2023-004U","EPOCH":"2026-04-19T05:48:46.824768","MEAN_MOTION":13.11416414,"ECCENTRICITY":0.0001421,"INCLINATION":87.8929,"RA_OF_ASC_NODE":32.7841,"ARG_OF_PERICENTER":83.8697,"MEAN_ANOMALY":276.2593,"EPHEMERIS_TYPE":0,"CLASSIFICATION_TYPE":"U","NORAD_CAT_ID":55158,"ELEMENT_SET_NO":999,"REV_AT_EPOCH":15813,"BSTAR":0.0013847000000000002,"MEAN_MOTION_DOT":5.03e-06,"MEAN_MOTION_DDOT":0.0},{"OBJECT_NAME":"ONEWEB-0618","OBJECT_ID":"2023-004V","EPOCH":"2026-04-19T06:09:57.081024","MEAN_MOTION":15.12605153,"ECCENTRICITY":0.0014528,"INCLINATION":86.9142,"RA_OF_ASC_NODE":201.5326,"ARG_OF_PERICENTER":144.6194,"MEAN_ANOMALY":215.6013,"EPHEMERIS_TYPE":0,"CLASSIFICATION_TYPE":"U","NORAD_CAT_ID":55159,"ELEMENT_SET_NO":999,"REV_AT_EPOCH":17335,"BSTAR":0.00033850000000000004,"MEAN_MOTION_DOT":5.954e-05,"MEAN_MOTION_DDOT":0.0},{"OBJECT_NAME":"ONEWEB-0619","OBJECT_ID":"2023-004W","EPOCH":"2026-04-19T04:08:40.455744","MEAN_MOTION":13.17648714,"ECCENTRICITY":0.0001957,"INCLINATION":87.9194,"RA_OF_ASC_NODE":17.567,"ARG_OF_PERICENTER":93.233,"MEAN_ANOMALY":266.9025,"EPHEMERIS_TYPE":0,"CLASSIFICATION_TYPE":"U","NORAD_CAT_ID":55160,"ELEMENT_SET_NO":999,"REV_AT_EPOCH":15982,"BSTAR":0.00023492,"MEAN_MOTION_DOT":1.04e-06,"MEAN_MOTION_DDOT":0.0},{"OBJECT_NAME":"ONEWEB-0620","OBJECT_ID":"2023-004X","EPOCH":"2026-04-19T05:41:27.433248","MEAN_MOTION":13.11416579,"ECCENTRICITY":0.0001731,"INCLINATION":87.8917,"RA_OF_ASC_NODE":32.7971,"ARG_OF_PERICENTER":69.7648,"MEAN_ANOMALY":290.3666,"EPHEMERIS_TYPE":0,"CLASSIFICATION_TYPE":"U","NORAD_CAT_ID":55161,"ELEMENT_SET_NO":999,"REV_AT_EPOCH":15810,"BSTAR":0.0016847000000000001,"MEAN_MOTION_DOT":6.1e-06,"MEAN_MOTION_DDOT":0.0},{"OBJECT_NAME":"ONEWEB-0621","OBJECT_ID":"2023-004Y","EPOCH":"2026-04-19T00:50:53.661120","MEAN_MOTION":13.11414796,"ECCENTRICITY":0.0001682,"INCLINATION":87.8932,"RA_OF_ASC_NODE":32.8205,"ARG_OF_PERICENTER":84.9795,"MEAN_ANOMALY":275.1525,"EPHEMERIS_TYPE":0,"CLASSIFICATION_TYPE":"U","NORAD_CAT_ID":55162,"ELEMENT_SET_NO":999,"REV_AT_EPOCH":15805,"BSTAR":-0.0011473,"MEAN_MOTION_DOT":-3.94e-06,"MEAN_MOTION_DDOT":0.0},{"OBJECT_NAME":"ONEWEB-0622","OBJECT_ID":"2023-004Z","EPOCH":"2026-04-19T00:58:13.429344","MEAN_MOTION":13.11415437,"ECCENTRICITY":0.0001121,"INCLINATION":87.8935,"RA_OF_ASC_NODE":32.8211,"ARG_OF_PERICENTER":81.2108,"MEAN_ANOMALY":278.9147,"EPHEMERIS_TYPE":0,"CLASSIFICATION_TYPE":"U","NORAD_CAT_ID":55163,"ELEMENT_SET_NO":999,"REV_AT_EPOCH":15804,"BSTAR":-0.0016313,"MEAN_MOTION_DOT":-5.65e-06,"MEAN_MOTION_DDOT":0.0},{"OBJECT_NAME":"ONEWEB-0623","OBJECT_ID":"2023-004AA","EPOCH":"2026-04-19T04:01:21.808992","MEAN_MOTION":13.17649655,"ECCENTRICITY":0.0001409,"INCLINATION":87.9182,"RA_OF_ASC_NODE":17.6055,"ARG_OF_PERICENTER":104.0018,"MEAN_ANOMALY":256.127,"EPHEMERIS_TYPE":0,"CLASSIFICATION_TYPE":"U","NORAD_CAT_ID":55164,"ELEMENT_SET_NO":999,"REV_AT_EPOCH":15981,"BSTAR":-0.00043612,"MEAN_MOTION_DOT":-1.56e-06,"MEAN_MOTION_DDOT":0.0},{"OBJECT_NAME":"ONEWEB-0624","OBJECT_ID":"2023-004AB","EPOCH":"2026-04-19T03:11:20.101920","MEAN_MOTION":13.12927686,"ECCENTRICITY":0.0001666,"INCLINATION":87.9001,"RA_OF_ASC_NODE":2.3287,"ARG_OF_PERICENTER":86.0247,"MEAN_ANOMALY":274.1072,"EPHEMERIS_TYPE":0,"CLASSIFICATION_TYPE":"U","NORAD_CAT_ID":55165,"ELEMENT_SET_NO":999,"REV_AT_EPOCH":16032,"BSTAR":0.00029806,"MEAN_MOTION_DOT":1.21e-06,"MEAN_MOTION_DDOT":0.0},{"OBJECT_NAME":"ONEWEB-0625","OBJECT_ID":"2023-004AC","EPOCH":"2026-04-19T00:08:06.476064","MEAN_MOTION":13.17648684,"ECCENTRICITY":0.0002003,"INCLINATION":87.9186,"RA_OF_ASC_NODE":17.6317,"ARG_OF_PERICENTER":80.6165,"MEAN_ANOMALY":279.5193,"EPHEMERIS_TYPE":0,"CLASSIFICATION_TYPE":"U","NORAD_CAT_ID":55166,"ELEMENT_SET_NO":999,"REV_AT_EPOCH":15978,"BSTAR":0.00019148,"MEAN_MOTION_DOT":8.7e-07,"MEAN_MOTION_DDOT":0.0},{"OBJECT_NAME":"ONEWEB-0626","OBJECT_ID":"2023-004AD","EPOCH":"2026-04-18T23:53:31.394400","MEAN_MOTION":13.17650935,"ECCENTRICITY":0.000181,"INCLINATION":87.9182,"RA_OF_ASC_NODE":17.6335,"ARG_OF_PERICENTER":64.1117,"MEAN_ANOMALY":296.0201,"EPHEMERIS_TYPE":0,"CLASSIFICATION_TYPE":"U","NORAD_CAT_ID":55167,"ELEMENT_SET_NO":999,"REV_AT_EPOCH":15978,"BSTAR":-0.00013243,"MEAN_MOTION_DOT":-3.9e-07,"MEAN_MOTION_DDOT":0.0},{"OBJECT_NAME":"ONEWEB-0627","OBJECT_ID":"2023-004AE","EPOCH":"2026-04-19T03:15:12.055680","MEAN_MOTION":13.17647213,"ECCENTRICITY":0.0001517,"INCLINATION":87.9186,"RA_OF_ASC_NODE":17.6061,"ARG_OF_PERICENTER":94.9638,"MEAN_ANOMALY":265.1667,"EPHEMERIS_TYPE":0,"CLASSIFICATION_TYPE":"U","NORAD_CAT_ID":55168,"ELEMENT_SET_NO":999,"REV_AT_EPOCH":15980,"BSTAR":0.00016384,"MEAN_MOTION_DOT":7.6e-07,"MEAN_MOTION_DDOT":0.0},{"OBJECT_NAME":"ONEWEB-0628","OBJECT_ID":"2023-004AF","EPOCH":"2026-04-19T02:13:12.949536","MEAN_MOTION":13.12441188,"ECCENTRICITY":0.0001543,"INCLINATION":87.9004,"RA_OF_ASC_NODE":2.3931,"ARG_OF_PERICENTER":104.0615,"MEAN_ANOMALY":256.0685,"EPHEMERIS_TYPE":0,"CLASSIFICATION_TYPE":"U","NORAD_CAT_ID":55169,"ELEMENT_SET_NO":999,"REV_AT_EPOCH":16028,"BSTAR":0.00037635999999999995,"MEAN_MOTION_DOT":1.48e-06,"MEAN_MOTION_DDOT":0.0}]